SKYSAT-C1               
1 41601U 16040C   26198.04294710  .00005058  00000+0  14290-3 0  9992
2 41601  96.9547 228.1510 0000261 236.3178 123.8043 15.36766876562450
LAPAN-A3                
1 41603U 16040E   26198.60481242  .00001632  00000+0  53027-4 0  9990
2 41603  97.1506 193.7571 0008254 265.5025  94.5275 15.33286199559470
GAOFEN-3                
1 41727U 16049A   26198.61026900 -.00000082  00000+0 -11691-4 0  9994
2 41727  98.4012 205.9376 0001767  82.5761 277.5629 14.42218609523037
SKYSAT-C4               
1 41771U 16058B   26198.04736833  .00009969  00000+0  18273-3 0  9996
2 41771  96.9161 218.5856 0003478 114.9854 245.1760 15.49475207550091
SKYSAT-C5               
1 41772U 16058C   26198.10333754  .00003812  00000+0  11912-3 0  9993
2 41772  97.0451 237.4000 0002753 155.5861 204.5514 15.33734076548336
SKYSAT-C2               
1 41773U 16058D   26198.29708365  .00006528  00000+0  15146-3 0  9998
2 41773  97.0158 219.2705 0001113 343.1238  16.9973 15.42708898549690
SKYSAT-C3               
1 41774U 16058E   26198.03754474  .00014444  00000+0  22667-3 0  9995
2 41774  96.8991 227.7582 0002623 130.7873 229.3610 15.53761650550745
ALSAT-1B                
1 41785U 16059C   26198.61958850  .00000235  00000+0  44576-4 0  9993
2 41785  97.7750 206.0706 0010427 122.8262 237.3952 14.72295861525053
PATHFINDER 1            
1 41787U 16059E   26197.99766161  .00000258  00000+0  53123-4 0  9990
2 41787  97.8177 195.9301 0029877 110.2471 250.1951 14.67694301524088
SCATSAT 1               
1 41790U 16059H   26198.10528542  .00000639  00000+0  90578-4 0  9995
2 41790  98.1177 262.1782 0055343 150.4877 209.9478 14.79589993106017
GOKTURK 1A              
1 41875U 16073A   26198.61689325  .00000053  00000+0  19599-4 0  9992
2 41875  98.1212  92.8091 0001410  81.7664 278.3697 14.62793807513274
RESOURCESAT-2A          
1 41877U 16074A   26198.61676576  .00000435  00000+0  21842-3 0  9996
2 41877  98.7520 271.8709 0002288  22.5020 337.6257 14.21610237498624
CARTOSAT-2D             
1 41948U 17008A   26198.58744139  .00002109  00000+0  10310-3 0  9998
2 41948  97.4084 257.3228 0006174 131.9489 228.2273 15.19294188522195
SENTINEL-2B             
1 42063U 17013A   26198.62709207  .00000211  00000+0  97284-4 0  9993
2 42063  98.5685 272.9706 0001210  90.3557 269.7764 14.30816111488999
CARTOSAT-2E             
1 42767U 17036C   26198.60525387  .00002407  00000+0  11736-3 0  9998
2 42767  97.4254 257.9036 0003494 178.4650 181.6596 15.19266308502769
FORMOSAT-5              
1 42920U 17049A   26198.60352269  .00000031  00000+0  19043-4 0  9991
2 42920  98.2245 273.2362 0011168 356.3908   3.7205 14.50908185471083
SENTINEL-5P             
1 42969U 17064A   26198.58129501  .00000006  00000+0  23909-4 0  9997
2 42969  98.7929 140.4976 0001168  93.9787 266.1523 14.19523419453877
SKYSAT-C11              
1 42987U 17068A   26197.97438805  .00017693  00000+0  22543-3 0  9995
2 42987  97.4385 348.1412 0001195 155.9503 204.1810 15.59388848487885
SKYSAT-C10              
1 42988U 17068B   26197.89009115  .00005733  00000+0  17054-3 0  9998
2 42988  97.4545 335.0424 0001492 111.5176 248.6227 15.35136658486918
SKYSAT-C9               
1 42989U 17068C   26198.35076911  .00007071  00000+0  16643-3 0  9999
2 42989  97.4465 336.7357 0008462  37.8193 322.3648 15.42246101487401
SKYSAT-C8               
1 42990U 17068D   26198.66183819  .00005558  00000+0  15332-3 0  9993
2 42990  97.4563 335.7400 0001244 104.5664 255.5718 15.37519551486990
SKYSAT-C7               
1 42991U 17068E   26198.65639967  .00005358  00000+0  14807-3 0  9997
2 42991  97.4574 336.7261 0005531  12.9182 347.2203 15.37469414487057
SKYSAT-C6               
1 42992U 17068F   26197.95405848  .00004818  00000+0  14802-3 0  9994
2 42992  97.4611 335.8590 0005071  85.1818 275.0004 15.34187293486888
CARTOSAT-2F             
1 43111U 18004A   26198.63791858  .00003001  00000+0  14594-3 0  9995
2 43111  97.4766 257.9727 0002371 128.9746 231.1701 15.19185932471955
GAOFEN-1 02             
1 43259U 18031A   26198.59206389  .00000309  00000+0  51787-4 0  9997
2 43259  98.0510 261.0318 0001475 271.7819  88.3222 14.76473355447185
GAOFEN-1 03             
1 43260U 18031B   26198.63794715  .00000292  00000+0  49322-4 0  9992
2 43260  98.0502 260.9323 0002216   8.6084 351.5163 14.76464263447184
GAOFEN-1 04             
1 43262U 18031D   26198.61364885  .00001436  00000+0  21382-3 0  9999
2 43262  98.0511 261.1030 0001089  50.0528 310.0777 14.76442149447174
SENTINEL-3B             
1 43437U 18039A   26198.20528445  .00000049  00000+0  38460-4 0  9995
2 43437  98.6235 265.3046 0001192 119.8366 240.2933 14.26736730428409
GAOFEN-5 01             
1 43461U 18043A   26197.92975694  .00000128  00000+0  36363-4 0  9995
2 43461  98.4591 170.1443 0001996  28.3067 331.8241 14.60623956436037
GAOFEN-6                
1 43484U 18048A   26198.63632922  .00000442  00000+0  71077-4 0  9998
2 43484  98.0954 261.3439 0012096  74.5982 285.6563 14.76386108437880
